[{"OBJECT_NAME":"RADFXSAT (FOX-1B)","OBJECT_ID":"2017-073E","EPOCH":"2026-03-09T14:17:03.914016","MEAN_MOTION":15.10873817,"ECCENTRICITY":0.0154575,"INCLINATION":97.4852,"RA_OF_ASC_NODE":297.8938,"ARG_OF_PERICENTER":312.4525,"MEAN_ANOMALY":46.3719,"EPHEMERIS_TYPE":0,"CLASSIFICATION_TYPE":"U","NORAD_CAT_ID":43017,"ELEMENT_SET_NO":999,"REV_AT_EPOCH":45034,"BSTAR":0.00051457,"MEAN_MOTION_DOT":0.00011352,"MEAN_MOTION_DDOT":0},{"OBJECT_NAME":"STARLINK-31459","OBJECT_ID":"2024-049C","EPOCH":"2026-03-09T05:11:09.763872","MEAN_MOTION":15.27579059,"ECCENTRICITY":7.958e-5,"INCLINATION":43.0004,"RA_OF_ASC_NODE":146.2142,"ARG_OF_PERICENTER":294.7089,"MEAN_ANOMALY":65.368,"EPHEMERIS_TYPE":0,"CLASSIFICATION_TYPE":"U","NORAD_CAT_ID":59233,"ELEMENT_SET_NO":999,"REV_AT_EPOCH":11232,"BSTAR":-8.9984727e-5,"MEAN_MOTION_DOT":-2.737e-5,"MEAN_MOTION_DDOT":0}]
